STARLINK-3953           
1 52559U 22051AC  26111.78547545  .00001476  00000+0  11078-3 0  9999
2 52559  53.2172 285.8372 0001175  71.8803 288.2317 15.08838148218080
STARLINK-3956           
1 52560U 22051AD  26113.16177934 -.00000613  00000+0 -20444-4 0  9998
2 52560  53.2166 279.4778 0001180  85.5422 274.5705 15.08833508218296
STARLINK-3955           
1 52561U 22051AE  26112.94511998 -.00000587  00000+0 -18819-4 0  9999
2 52561  53.2172 295.4515 0001237  86.8928 273.2206 15.08832331218058
STARLINK-3957           
1 52562U 22051AF  26113.28689610 -.00000141  00000+0  92180-5 0  9994
2 52562  53.2171 278.9154 0001263  89.3745 270.7392 15.08836098218318
STARLINK-3942           
1 52563U 22051AG  26112.88255823 -.00000162  00000+0  79358-5 0  9990
2 52563  53.2162 295.7300 0001935  84.5197 275.6016 15.08835727218048
STARLINK-3959           
1 52564U 22051AH  26112.94239721 -.00000013  00000+0  17292-4 0  9990
2 52564  53.2180 295.4727 0001418  87.4155 272.6999 15.08836027218053
STARLINK-3911           
1 52565U 22051AJ  26112.76065385  .00000485  00000+0  48568-4 0  9996
2 52565  53.2176 281.2792 0001284  90.8771 269.2369 15.08836222218237
STARLINK-3938           
1 52566U 22051AK  26112.91935360 -.00000514  00000+0 -14190-4 0  9992
2 52566  53.2184 295.5658 0001587  90.7666 269.3508 15.08837574218051
STARLINK-3929           
1 52567U 22051AL  26112.88577962 -.00000931  00000+0 -40423-4 0  9990
2 52567  53.2164 280.7156 0001543  92.7393 267.3776 15.08832418218259
STARLINK-3930           
1 52568U 22051AM  26112.87473336 -.00000243  00000+0  27971-5 0  9999
2 52568  53.2178 280.7633 0001223  94.6922 265.4210 15.08839677218255
STARLINK-3927           
1 52569U 22051AN  26112.88210193  .00001316  00000+0  10076-3 0  9998
2 52569  53.2169 280.7319 0001373 100.1309 259.9838 15.08833431218251
STARLINK-3901           
1 52574U 22051AQ  26112.87841619 -.00000035  00000+0  15905-4 0  9991
2 52574  53.2178 280.7485 0001482  97.4445 262.6715 15.08835584218257
STARLINK-3932           
1 52576U 22051AS  26112.86096727  .00000076  00000+0  22843-4 0  9997
2 52576  53.2175 280.8246 0001364  91.4041 268.7108 15.08843190218252
STARLINK-3836           
1 52577U 22051AT  26112.91199053  .00000939  00000+0  77088-4 0  9999
2 52577  53.2188 295.5953 0001348 108.3982 251.7157 15.08840350218058
STARLINK-3833           
1 52578U 22051AU  26112.78319077 -.00000694  00000+0 -25495-4 0  9990
2 52578  53.2168 296.1756 0001462  92.6946 267.4214 15.08845530218038
STARLINK-3893           
1 52579U 22051AV  26112.77213059  .00004725  00000+0  31458-3 0  9995
2 52579  53.2184 296.2276 0001442 100.4435 259.6720 15.08865009218032
STARLINK-3919           
1 52580U 22051AW  26112.77679882  .00001719  00000+0  12610-3 0  9996
2 52580  53.2183 296.2145 0001340  91.7779 268.3367 15.08823360218036
STARLINK-3915           
1 52581U 22051AX  26112.72385517  .00000915  00000+0  75600-4 0  9997
2 52581  53.2163 281.4442 0001387  89.9555 270.1596 15.08840452218231
STARLINK-3895           
1 52583U 22051AZ  26112.72017384  .00000871  00000+0  72821-4 0  9996
2 52583  53.2176 281.4594 0001040  82.4577 277.6533 15.08840817218231
STARLINK-3922           
1 52584U 22051BA  26112.86002065  .00001681  00000+0  12365-3 0  9998
2 52584  53.2184 280.8205 0001016 126.9530 233.1555 15.08850052218254
STARLINK-3906           
1 52585U 22051BB  26112.90785493  .00000213  00000+0  31462-4 0  9997
2 52585  53.2173 280.5781 0001455  84.9446 275.1712 15.08835084218265
STARLINK-3910           
1 52586U 22051BC  26112.84897752  .00000191  00000+0  30097-4 0  9991
2 52586  53.2176 280.8819 0001332  87.4094 272.7050 15.08836951218256
STARLINK-3867           
1 52587U 22051BD  26113.15903758 -.00000864  00000+0 -36233-4 0  9998
2 52587  53.2176 279.3450 0001146  82.9234 277.1889 15.08839002218305
STARLINK-3917           
1 52588U 22051BE  26112.97033703  .00014387  00000+0  91745-3 0  9993
2 52588  53.2178 280.3332 0000439  83.5298 276.5745 15.08948698218272
STARLINK-4019           
1 52598U 22052A   26112.94237273 -.00000651  00000+0 -22788-4 0  9993
2 52598  53.2165  85.4568 0001506  85.0186 275.0978 15.08829064218269
STARLINK-4024           
1 52599U 22052B   26113.12864529  .00001016  00000+0  81892-4 0  9990
2 52599  53.2176  79.7294 0001293  71.3471 288.7661 15.08862101218362
STARLINK-4026           
1 52600U 22052C   26113.17281548 -.00000071  00000+0  13621-4 0  9998
2 52600  53.2159  79.4270 0001586  85.4842 274.6331 15.08838642218372
STARLINK-4027           
1 52601U 22052D   26113.11393426 -.00000349  00000+0 -38399-5 0  9991
2 52601  53.2165  79.6922 0001466  82.3563 277.7595 15.08837229218364
STARLINK-4012           
1 52602U 22052E   26113.17649220 -.00002674  00000+0 -14991-3 0  9997
2 52602  53.2164  79.4094 0001718  78.4762 281.6423 15.08850712218376
STARLINK-4016           
1 52603U 22052F   26113.16273538  .00000287  00000+0  36091-4 0  9994
2 52603  53.2168  79.4835 0001224  82.7015 277.4116 15.08837360218371
