OBJECT_NAME,OBJECT_ID,EPOCH,MEAN_MOTION,ECCENTRICITY,INCLINATION,RA_OF_ASC_NODE,ARG_OF_PERICENTER,MEAN_ANOMALY,EPHEMERIS_TYPE,CLASSIFICATION_TYPE,NORAD_CAT_ID,ELEMENT_SET_NO,REV_AT_EPOCH,BSTAR,MEAN_MOTION_DOT,MEAN_MOTION_DDOT
STARLINK-3953,2022-051AC,2026-04-21T18:51:05.078880,15.08838148,.00011757,53.2172,285.8372,71.8803,288.2317,0,U,52559,999,21808,.11078148E-3,.1476E-4,0
STARLINK-3956,2022-051AD,2026-04-23T03:52:57.734976,15.08833508,.00011808,53.2166,279.4778,85.5422,274.5705,0,U,52560,999,21829,-.20443699E-4,-.613E-5,0
STARLINK-3955,2022-051AE,2026-04-22T22:40:58.366272,15.08832331,.0001237,53.2172,295.4515,86.8928,273.2206,0,U,52561,999,21805,-.18819E-4,-.587E-5,0
STARLINK-3957,2022-051AF,2026-04-23T06:53:07.823040,15.08836098,.00012634,53.2171,278.9154,89.3745,270.7392,0,U,52562,999,21831,.921798E-5,-.141E-5,0
STARLINK-3942,2022-051AG,2026-04-22T21:10:53.031072,15.08835727,.0001935,53.2162,295.7300,84.5197,275.6016,0,U,52563,999,21804,.79358E-5,-.162E-5,0
STARLINK-3959,2022-051AH,2026-04-22T22:37:03.118944,15.08836027,.0001418,53.2180,295.4727,87.4155,272.6999,0,U,52564,999,21805,.17292E-4,-.13E-6,0
STARLINK-3911,2022-051AJ,2026-04-22T18:15:20.492640,15.08836222,.00012847,53.2176,281.2792,90.8771,269.2369,0,U,52565,999,21823,.48568494E-4,.485E-5,0
STARLINK-3938,2022-051AK,2026-04-22T22:03:52.151040,15.08837574,.0001587,53.2184,295.5658,90.7666,269.3508,0,U,52566,999,21805,-.1419E-4,-.514E-5,0
STARLINK-3929,2022-051AL,2026-04-22T21:15:31.359168,15.08832418,.0001543,53.2164,280.7156,92.7393,267.3776,0,U,52567,999,21825,-.40423E-4,-.931E-5,0
STARLINK-3930,2022-051AM,2026-04-22T20:59:36.962304,15.08839677,.0001223,53.2178,280.7633,94.6922,265.4210,0,U,52568,999,21825,.27971E-5,-.243E-5,0
STARLINK-3927,2022-051AN,2026-04-22T21:10:13.606752,15.08833431,.0001373,53.2169,280.7319,100.1309,259.9838,0,U,52569,999,21825,.10076E-3,.1316E-4,0
STARLINK-3901,2022-051AQ,2026-04-22T21:04:55.158816,15.08835584,.0001482,53.2178,280.7485,97.4445,262.6715,0,U,52574,999,21825,.15905E-4,-.35E-6,0
STARLINK-3932,2022-051AS,2026-04-22T20:39:47.572128,15.08843190,.0001364,53.2175,280.8246,91.4041,268.7108,0,U,52576,999,21825,.22843E-4,.76E-6,0
STARLINK-3836,2022-051AT,2026-04-22T21:53:15.981792,15.08840350,.0001348,53.2188,295.5953,108.3982,251.7157,0,U,52577,999,21805,.77088E-4,.939E-5,0
STARLINK-3833,2022-051AU,2026-04-22T18:47:47.682528,15.08845530,.00014622,53.2168,296.1756,92.6946,267.4214,0,U,52578,999,21803,-.25494754E-4,-.694E-5,0
STARLINK-3893,2022-051AV,2026-04-22T18:31:52.082976,15.08865009,.00014427,53.2184,296.2276,100.4435,259.6720,0,U,52579,999,21803,.31457592E-3,.4725E-4,0
STARLINK-3919,2022-051AW,2026-04-22T18:38:35.418048,15.08823360,.00013406,53.2183,296.2145,91.7779,268.3367,0,U,52580,999,21803,.1261007E-3,.1719E-4,0
STARLINK-3915,2022-051AX,2026-04-22T17:22:21.086688,15.08840452,.00013875,53.2163,281.4442,89.9555,270.1596,0,U,52581,999,21823,.75600178E-4,.915E-5,0
STARLINK-3895,2022-051AZ,2026-04-22T17:17:03.019776,15.08840817,.00010407,53.2176,281.4594,82.4577,277.6533,0,U,52583,999,21823,.72821408E-4,.871E-5,0
STARLINK-3922,2022-051BA,2026-04-22T20:38:25.784160,15.08850052,.0001016,53.2184,280.8205,126.9530,233.1555,0,U,52584,999,21825,.12365E-3,.1681E-4,0
STARLINK-3906,2022-051BB,2026-04-22T21:47:18.665952,15.08835084,.0001455,53.2173,280.5781,84.9446,275.1712,0,U,52585,999,21826,.31462E-4,.213E-5,0
STARLINK-3910,2022-051BC,2026-04-22T20:22:31.657728,15.08836951,.0001332,53.2176,280.8819,87.4094,272.7050,0,U,52586,999,21825,.30097E-4,.191E-5,0
STARLINK-3867,2022-051BD,2026-04-23T03:49:00.846912,15.08839002,.00011463,53.2176,279.3450,82.9234,277.1889,0,U,52587,999,21830,-.36233356E-4,-.864E-5,0
STARLINK-3917,2022-051BE,2026-04-22T23:17:17.119392,15.08948698,.00004396,53.2178,280.3332,83.5298,276.5745,0,U,52588,999,21827,.9174507E-3,.14387E-3,0
STARLINK-4019,2022-052A,2026-04-22T22:37:01.003872,15.08829064,.0001506,53.2165,85.4568,85.0186,275.0978,0,U,52598,999,21826,-.22788E-4,-.651E-5,0
STARLINK-4024,2022-052B,2026-04-23T03:05:14.953056,15.08862101,.00012931,53.2176,79.7294,71.3471,288.7661,0,U,52599,999,21836,.81891956E-4,.1016E-4,0
STARLINK-4026,2022-052C,2026-04-23T04:08:51.257472,15.08838642,.00015866,53.2159,79.4270,85.4842,274.6331,0,U,52600,999,21837,.13621154E-4,-.71E-6,0
STARLINK-4027,2022-052D,2026-04-23T02:44:03.920064,15.08837229,.00014661,53.2165,79.6922,82.3563,277.7595,0,U,52601,999,21836,-.3839922E-5,-.349E-5,0
STARLINK-4012,2022-052E,2026-04-23T04:14:08.926080,15.08850712,.00017181,53.2164,79.4094,78.4762,281.6423,0,U,52602,999,21837,-.1499065E-3,-.2674E-4,0
STARLINK-4016,2022-052F,2026-04-23T03:54:20.336832,15.08837360,.00012244,53.2168,79.4835,82.7015,277.4116,0,U,52603,999,21837,.36090663E-4,.287E-5,0
